#dP2024  3 15  6  0  0.00000000      96 __u+U IGS20 EXT  IAC
## 2305 453600.00000000   900.00000000 60384 0.2500000000000
+  119   C06C07C08C09C10C11C12C13C14C16C19C20C21C22C23C24C25
+        C26C27C28C29C30C32C33C34C35C36C37C38C39C40C41C42C43
+        C44C45C46E02E03E04E05E07E08E09E10E11E12E13E14E15E18
+        E19E21E24E25E26E27E30E31E33E34E36G01G02G03G04G05G06
+        G07G08G09G10G11G12G13G14G15G16G17G18G19G20G21G22G23
+        G24G25G26G27G28G29G30G31G32J02J03J04R01R02R03R04R05
+        R07R08R09R11R12R13R14R15R16R17R18R19R20R21R22R24R25
++        10  9  9 10  8  8 10  9  8 10  8  9  8  9  9  8  7
++         8  8  8  7  9  7  8  9 10  9 10  9  7 10  7  9  8
++        10  8  7  6  8  8  7  8  8  7  7  7  7  7  7  8  7
++         7  7  7  7  8  8  7  7  9  7  8  7  7  7  6  8  7
++         7  7  7  7  7  6  8  6  7  8  7  6  7  8  6  7  6
++         7  6  7  6  8  7  7  7  7  9  9  8  7  8  8  8  8
++         7  8  9  8  8  8  8  7  8  7  8  9  8  8  7  7  9
%c M  cc GPS ccc cccc cccc cccc cccc ccccc ccccc ccccc ccccc
%c cc cc ccc ccc cccc cccc cccc cccc ccccc ccccc ccccc ccccc
%f  0.0000000  0.000000000  0.00000000000  0.000000000000000
%f  0.0000000  0.000000000  0.00000000000  0.000000000000000
%i    0    0    0    0      0      0      0      0         0
%i    0    0    0    0      0      0      0      0         0
/* IAC                                ULTRA-RAPID PREDICTION
/* S/V CLOCKS ARE ALIGNED TO GNSS TIME                      
/* G:C1WC2W R:C1PC2P E:C1XC5X C:C2IC6I J:C1CC2S             
/* PCV:IGS20_2290 OL/AL:FES2004  NONE     YN ORB:CoN CLK:CoN
*  2024 03 16  5  0  0.00000000
PC06 -10200.928378  40642.527470  -2929.121357    276.355333
PC07  -5376.663333  28389.190325  30826.805051   -911.241695
PC08 -19775.466517  24353.879716 -28276.168089     57.773698
PC09  -6234.752667  41071.553129   5262.788658   -627.165037
PC10   3326.030105  31354.322466  28534.080713     43.193508
PC11 -15440.554296  -9042.300614  21479.561612    462.151725
PC12  -8820.150335 -25189.279534   8198.565102   -213.904317
PC13 -10848.828430  25335.332849 -31829.055383    425.151303
PC14 -26438.502376  -8519.574496  -2282.395924    416.574308
PC16 -12437.026433  39470.368335  -6746.679981   -398.940493
PC19  25514.921225   1734.685279  11233.725570   -919.071972
PC20  24056.887009  13151.807301  -5288.966840   -261.471786
PC21  -7705.618016 -17653.254218  20200.693972   -961.359757
PC22  12433.116162 -11330.483926  22274.529842    -73.282929
PC23 -19747.378937  19371.977161   3692.486822   -776.381665
PC24 -13794.828683  -9574.741239 -22310.550693    954.312860
PC25 -23526.018096   7819.128015 -12844.519526    350.650112
PC26   3259.009044 -20430.826221 -18732.198783   -263.412286
PC27   3769.448717  27639.440851    420.254054    285.322196
PC28  -7446.883431  22223.658726  15147.391277    217.622742
PC29  15952.818023  -1975.091991 -22817.308691    255.187149
PC30  14215.675583  18790.407091 -14942.742069    -39.023236
PC32   7818.992791  17587.828349 -20193.009585   -583.818409
PC33 -25533.414834  -1639.719210 -11105.489077   -958.367312
PC34 -14746.989418 -17465.032997  16010.527011    391.104634
PC35   6766.992283 -22409.007803 -15236.869211    410.119172
PC36  23624.630977  -6953.126359  13133.342602     19.778238
PC37  -4141.768270  20493.398260  18498.745128   -945.188041
PC38 -25623.549177  25754.722137 -21454.311023    143.013767
PC39 -13873.111923  37349.282588 -13381.175625     -7.576556
PC40  -8750.895986  22827.258617  34379.266329    -60.977300
PC41 -13186.956081  10921.631580 -21973.376235   -906.381704
PC42 -23160.780198 -13924.057270   6937.519432   -446.897493
PC43 -16229.360842    860.150812  22674.164252     64.305329
PC44  -4691.695291 -27521.218247   -637.524616    414.622367
PC45  19734.148592 -19340.944377  -3825.946193    -75.802604
PC46  14350.869354   8838.403653  22225.338305   -131.994981
PE02 -16163.257515 -13178.896443 -21024.632450    111.562510
PE03 -17421.572584 -23915.251824   -565.735055   -100.606975
PE04  21792.652808   9295.070752  17757.983021   -350.723614
PE05  -2942.945749 -24298.901236  16651.641160   4729.479242
PE07 -13612.842220  10112.627619 -24250.828654   -109.165108
PE08 -21787.172143 -10069.422198 -17310.463260   -239.616198
PE09  13594.706534  -9906.644829  24362.347643   -372.080524
PE10  19051.952943 -11243.985998 -19672.426235   -609.648438
PE11  17797.049020 -20643.214966 -11581.047318   3165.562348
PE12  17499.946703  -1132.489287 -23852.264957   -950.517443
PE13 -17911.185153  20161.832875  12187.940857    -20.559953
PE14  -6798.970056  18146.148051  18488.773497     67.697040
PE15 -17239.738757    522.283161  24060.197138    -91.484711
PE18  16889.657348  -9512.437011 -22857.811957    440.511425
PE19  16113.965437  24783.759148  -1496.653467   -424.703672
PE21  -5203.084694  16907.261449  23724.338211   -584.180390
PE24  24650.895354 -10726.550064 -12385.176887   -653.616000
PE25   5654.542338 -16890.903616 -23643.351848      2.165337
PE26  -7641.677360  27678.499469  -7165.653538    397.722445
PE27 -24422.090749  10937.602574  12658.484474   -299.846695
PE30 -28965.654188  -1652.106583  -5925.173232    -99.332408
PE31  29003.764801   1403.571089   5729.116572    -18.375123
PE33   6089.634506  19539.539416 -21378.611382      9.068980
PE34  -6515.780152 -19104.515561  21648.489774   -100.220802
PE36   8107.649377 -27700.888583   6611.523352   -199.852270
PG01 -11281.177425  23832.703684    412.985424    174.211124
PG02 -14651.950272  19218.578071  11193.494413   -469.559045
PG03 -18264.636936  12124.235214 -15054.040750    254.748026
PG04  -8812.945701  13206.191499 -21257.142064    315.966292
PG05  25819.731835  -5886.272660   2428.365345   -165.559304
PG06   9421.185449  12871.620416 -21145.973801    365.928633
PG07  -3442.225008  24557.644133   9320.889244    -85.308231
PG08 -15245.465713   4893.758584  21147.917532     58.093772
PG09   3748.881306  21765.053669 -14793.637175    126.149210
PG10 -14727.262528 -11292.704366  19331.325370     -0.617970
PG11  16063.192632    393.159600 -21115.995922   -608.018211
PG12  19652.612465 -10901.972506 -14393.868547   -487.587834
PG13  17671.508357   5423.828208  18954.242381    634.509797
PG14  10570.900825  13705.020374  20220.560023    351.663474
PG15  14704.444356  -6809.662930  20582.223459    138.125173
PG16 -26720.924261   -908.881133  -2319.946962   -340.092752
PG17  12164.797863  23297.171211   3616.967977    713.520817
PG18   3682.854993 -24264.371746   9926.275001   -576.376802
PG19  16816.164105  19836.818786  -6476.461966    454.593276
PG20  24536.446087     57.908012  -9907.943046    383.767844
PG21 -16040.070916  14290.413156  15393.667169    131.177440
PG22  17533.993278  11263.069419  16720.195273     15.287389
PG23  -1188.924729 -14820.482451  22027.670560    178.148530
PG24  14956.994689 -18053.081460  11668.159584   -446.889621
PG25   9119.732188 -15470.680585 -19824.344698    491.411628
PG26 -22594.978637  -5650.756577 -13243.261003    178.966858
PG27 -19737.945727  -7866.713901  15918.576265    -12.095896
PG28  -8696.346260 -15483.481758 -19768.432258   -166.144751
PG29   -244.074555 -21082.179380 -16140.928313   -604.686317
PG30   5034.603901  19756.692279  17015.003737   -419.121855
PG31 -14548.234729  -5310.608974 -21799.888009   -227.987600
PG32 -15687.473181 -21566.212997    680.469734   -615.939405
PJ02 -30741.973950  23075.528664  22441.886766     -2.964055
PJ03 -29832.185509  26393.849326  18938.875522     -0.190542
PJ04 -26058.411187  20587.612018 -20904.623516     50.673002
PR01 -22190.434585  -7084.977813 -10370.992556     79.810911
PR02 -12378.323686   4269.911538 -21852.562088    -22.586450
PR03   4317.031491  14091.181964 -20750.781678     96.436737
PR04  18093.123727  15901.190345  -8341.357634    227.765251
PR05  22154.662583   9273.866305   8579.006147    128.467695
PR07  -5194.676082 -14462.257029  20421.581730     78.054353
PR08 -18297.024239 -15809.654976   8235.978318    -74.731643
PR09  20894.373599 -14262.908969  -3572.421353    175.593343
PR11  -6797.614356  -8700.327485 -22987.384826     31.135944
PR12 -21134.771112   4159.115453 -13656.249837     37.852608
PR13 -21912.266030  13012.517588   1125.899098    -45.336366
PR14  -8977.882481  15256.843720  18363.245485     26.220662
PR15   8273.084975   7966.185154  22789.822363     81.323152
PR16  20966.937757  -4151.856920  13951.835645     24.054787
PR17  -1720.905935  25395.671503   1921.481007     69.392641
PR18   5409.438919  20577.189759 -14012.735265    132.379623
PR19   9497.931949   7391.402182 -22490.275038   -269.495433
PR20   9323.447803 -15194.917227 -18259.077943   -109.876823
PR21   1855.805283 -25368.524396  -1781.888165    -84.887740
PR22  -5568.521785 -20036.791618  14810.055073    112.994551
PR24  -8919.423840  16016.289865  17756.157359    -47.957727
PR25   2688.894045 -25300.820340  -1708.237084    -23.012731
EOF
